[{"OBJECT_NAME":"OBJECT A","OBJECT_ID":"2025-013A","EPOCH":"2026-03-09T23:29:31.895232","MEAN_MOTION":15.29260221,"ECCENTRICITY":0.0010321,"INCLINATION":97.6364,"RA_OF_ASC_NODE":244.5149,"ARG_OF_PERICENTER":282.3775,"MEAN_ANOMALY":77.6309,"EPHEMERIS_TYPE":0,"CLASSIFICATION_TYPE":"U","NORAD_CAT_ID":62729,"ELEMENT_SET_NO":999,"REV_AT_EPOCH":6276,"BSTAR":0.0013206527,"MEAN_MOTION_DOT":0.00037616,"MEAN_MOTION_DDOT":0},{"OBJECT_NAME":"STARLINK-34075","OBJECT_ID":"2025-095AD","EPOCH":"2026-03-09T07:40:17.711616","MEAN_MOTION":15.27595139,"ECCENTRICITY":0.00023405,"INCLINATION":42.9947,"RA_OF_ASC_NODE":178.088,"ARG_OF_PERICENTER":297.348,"MEAN_ANOMALY":62.7133,"EPHEMERIS_TYPE":0,"CLASSIFICATION_TYPE":"U","NORAD_CAT_ID":63917,"ELEMENT_SET_NO":999,"REV_AT_EPOCH":4772,"BSTAR":0.0010261285,"MEAN_MOTION_DOT":0.00028097,"MEAN_MOTION_DDOT":0}]
